{"fetched_at":"2026-07-13T18:16:58.106Z","source":"https://celestrak.org/NORAD/elements/gp.php?NAME=HULIANWANG&FORMAT=JSON","constellation":"guowang","records":[{"OBJECT_NAME":"HULIANWANG DIGUI-92","OBJECT_ID":"2025-231F","EPOCH":"2026-07-12T22:02:15.764928","CLASSIFICATION_TYPE":"U","MEAN_MOTION":13.29328737,"ECCENTRICITY":0.00005894,"INCLINATION":50.0051,"RA_OF_ASC_NODE":83.3688,"ARG_OF_PERICENTER":329.5161,"MEAN_ANOMALY":30.5677,"EPHEMERIS_TYPE":0,"NORAD_CAT_ID":66000,"ELEMENT_SET_NO":999,"REV_AT_EPOCH":3631,"BSTAR":0.000012575813,"MEAN_MOTION_DOT":-0.00000118,"MEAN_MOTION_DDOT":0},{"OBJECT_NAME":"HULIANWANG DIGUI-93","OBJECT_ID":"2025-231G","EPOCH":"2026-07-12T21:38:09.319200","CLASSIFICATION_TYPE":"U","MEAN_MOTION":13.29327866,"ECCENTRICITY":0.00005617,"INCLINATION":50.002,"RA_OF_ASC_NODE":83.2171,"ARG_OF_PERICENTER":325.9684,"MEAN_ANOMALY":34.1152,"EPHEMERIS_TYPE":0,"NORAD_CAT_ID":66001,"ELEMENT_SET_NO":999,"REV_AT_EPOCH":3631,"BSTAR":0.000031853298,"MEAN_MOTION_DOT":-0.00000109,"MEAN_MOTION_DDOT":0},{"OBJECT_NAME":"HULIANWANG DIGUI-94","OBJECT_ID":"2025-231H","EPOCH":"2026-07-12T21:50:24.063936","CLASSIFICATION_TYPE":"U","MEAN_MOTION":13.29325793,"ECCENTRICITY":0.00005986,"INCLINATION":50.0061,"RA_OF_ASC_NODE":83.3434,"ARG_OF_PERICENTER":327.2111,"MEAN_ANOMALY":32.8724,"EPHEMERIS_TYPE":0,"NORAD_CAT_ID":66002,"ELEMENT_SET_NO":999,"REV_AT_EPOCH":3631,"BSTAR":0.000022052412,"MEAN_MOTION_DOT":-0.00000114,"MEAN_MOTION_DDOT":0},{"OBJECT_NAME":"HULIANWANG DIGUI-95","OBJECT_ID":"2025-231J","EPOCH":"2026-07-13T02:50:58.709184","CLASSIFICATION_TYPE":"U","MEAN_MOTION":13.29332375,"ECCENTRICITY":0.00005226,"INCLINATION":50.0035,"RA_OF_ASC_NODE":82.3905,"ARG_OF_PERICENTER":333.3244,"MEAN_ANOMALY":26.7601,"EPHEMERIS_TYPE":0,"NORAD_CAT_ID":66003,"ELEMENT_SET_NO":999,"REV_AT_EPOCH":3634,"BSTAR":0.000046363071,"MEAN_MOTION_DOT":-0.00000103,"MEAN_MOTION_DDOT":0},{"OBJECT_NAME":"HULIANWANG DIGUI-96","OBJECT_ID":"2025-258A","EPOCH":"2026-07-13T01:36:50.583168","CLASSIFICATION_TYPE":"U","MEAN_MOTION":13.29327134,"ECCENTRICITY":0.00008705,"INCLINATION":50.0022,"RA_OF_ASC_NODE":202.8188,"ARG_OF_PERICENTER":243.4767,"MEAN_ANOMALY":116.6016,"EPHEMERIS_TYPE":0,"NORAD_CAT_ID":66412,"ELEMENT_SET_NO":999,"REV_AT_EPOCH":3317,"BSTAR":0.000063860191,"MEAN_MOTION_DOT":-9.4e-7,"MEAN_MOTION_DDOT":0},{"OBJECT_NAME":"HULIANWANG DIGUI-97","OBJECT_ID":"2025-258B","EPOCH":"2026-07-13T09:37:55.646400","CLASSIFICATION_TYPE":"U","MEAN_MOTION":13.29326621,"ECCENTRICITY":0.000104,"INCLINATION":49.9984,"RA_OF_ASC_NODE":201.8455,"ARG_OF_PERICENTER":242.6361,"MEAN_ANOMALY":117.4405,"EPHEMERIS_TYPE":0,"NORAD_CAT_ID":66413,"ELEMENT_SET_NO":999,"REV_AT_EPOCH":3321,"BSTAR":0.000055796,"MEAN_MOTION_DOT":-9.8e-7,"MEAN_MOTION_DDOT":0},{"OBJECT_NAME":"HULIANWANG DIGUI-98","OBJECT_ID":"2025-258C","EPOCH":"2026-07-13T09:26:06.001728","CLASSIFICATION_TYPE":"U","MEAN_MOTION":13.29323061,"ECCENTRICITY":0.0001116,"INCLINATION":50.0019,"RA_OF_ASC_NODE":201.8801,"ARG_OF_PERICENTER":239.1694,"MEAN_ANOMALY":120.9069,"EPHEMERIS_TYPE":0,"NORAD_CAT_ID":66414,"ELEMENT_SET_NO":999,"REV_AT_EPOCH":3321,"BSTAR":0.00006206,"MEAN_MOTION_DOT":-9.5e-7,"MEAN_MOTION_DDOT":0},{"OBJECT_NAME":"HULIANWANG DIGUI-99","OBJECT_ID":"2025-258D","EPOCH":"2026-07-12T23:36:35.779680","CLASSIFICATION_TYPE":"U","MEAN_MOTION":13.29326404,"ECCENTRICITY":0.00009843,"INCLINATION":50.0022,"RA_OF_ASC_NODE":203.0473,"ARG_OF_PERICENTER":246.3175,"MEAN_ANOMALY":113.7594,"EPHEMERIS_TYPE":0,"NORAD_CAT_ID":66415,"ELEMENT_SET_NO":999,"REV_AT_EPOCH":3315,"BSTAR":0.000066896819,"MEAN_MOTION_DOT":-9.3e-7,"MEAN_MOTION_DDOT":0},{"OBJECT_NAME":"HULIANWANG DIGUI-100","OBJECT_ID":"2025-258E","EPOCH":"2026-07-13T09:14:03.469632","CLASSIFICATION_TYPE":"U","MEAN_MOTION":13.29323083,"ECCENTRICITY":0.0001014,"INCLINATION":50.0022,"RA_OF_ASC_NODE":201.8414,"ARG_OF_PERICENTER":252.423,"MEAN_ANOMALY":107.6531,"EPHEMERIS_TYPE":0,"NORAD_CAT_ID":66416,"ELEMENT_SET_NO":999,"REV_AT_EPOCH":3322,"BSTAR":0.000060907,"MEAN_MOTION_DOT":-9.6e-7,"MEAN_MOTION_DDOT":0},{"OBJECT_NAME":"HULIANWANG DIGUI-101","OBJECT_ID":"2025-258F","EPOCH":"2026-07-13T10:50:02.037408","CLASSIFICATION_TYPE":"U","MEAN_MOTION":13.29327069,"ECCENTRICITY":0.0000845,"INCLINATION":49.9973,"RA_OF_ASC_NODE":201.4204,"ARG_OF_PERICENTER":246.0124,"MEAN_ANOMALY":114.0659,"EPHEMERIS_TYPE":0,"NORAD_CAT_ID":66417,"ELEMENT_SET_NO":999,"REV_AT_EPOCH":3323,"BSTAR":0.000066268,"MEAN_MOTION_DOT":-9.3e-7,"MEAN_MOTION_DDOT":0},{"OBJECT_NAME":"HULIANWANG DIGUI-102","OBJECT_ID":"2025-258G","EPOCH":"2026-07-12T01:45:28.819008","CLASSIFICATION_TYPE":"U","MEAN_MOTION":13.29323039,"ECCENTRICITY":0.0000911,"INCLINATION":49.9988,"RA_OF_ASC_NODE":206.169,"ARG_OF_PERICENTER":238.3695,"MEAN_ANOMALY":121.7089,"EPHEMERIS_TYPE":0,"NORAD_CAT_ID":66418,"ELEMENT_SET_NO":999,"REV_AT_EPOCH":3304,"BSTAR":0.000085526,"MEAN_MOTION_DOT":-8.4e-7,"MEAN_MOTION_DDOT":0},{"OBJECT_NAME":"HULIANWANG DIGUI-103","OBJECT_ID":"2025-258H","EPOCH":"2026-07-12T23:12:22.766688","CLASSIFICATION_TYPE":"U","MEAN_MOTION":13.29326121,"ECCENTRICITY":0.00010099,"INCLINATION":49.998,"RA_OF_ASC_NODE":202.8742,"ARG_OF_PERICENTER":251.9402,"MEAN_ANOMALY":108.136,"EPHEMERIS_TYPE":0,"NORAD_CAT_ID":66419,"ELEMENT_SET_NO":999,"REV_AT_EPOCH":3316,"BSTAR":0.000053089619,"MEAN_MOTION_DOT":-9.9e-7,"MEAN_MOTION_DDOT":0},{"OBJECT_NAME":"HULIANWANG DIGUI-104","OBJECT_ID":"2025-258J","EPOCH":"2026-07-13T11:38:13.180128","CLASSIFICATION_TYPE":"U","MEAN_MOTION":13.29326199,"ECCENTRICITY":0.0000944,"INCLINATION":50,"RA_OF_ASC_NODE":200.9828,"ARG_OF_PERICENTER":243.1924,"MEAN_ANOMALY":116.8852,"EPHEMERIS_TYPE":0,"NORAD_CAT_ID":66420,"ELEMENT_SET_NO":999,"REV_AT_EPOCH":3322,"BSTAR":0.000035987,"MEAN_MOTION_DOT":-0.00000107,"MEAN_MOTION_DDOT":0},{"OBJECT_NAME":"HULIANWANG DIGUI-105","OBJECT_ID":"2025-285A","EPOCH":"2026-07-12T23:06:16.351200","CLASSIFICATION_TYPE":"U","MEAN_MOTION":13.29322616,"ECCENTRICITY":0.00009999,"INCLINATION":50.0059,"RA_OF_ASC_NODE":53.7783,"ARG_OF_PERICENTER":25.4483,"MEAN_ANOMALY":334.6438,"EPHEMERIS_TYPE":0,"NORAD_CAT_ID":66915,"ELEMENT_SET_NO":999,"REV_AT_EPOCH":2948,"BSTAR":0.000052970953,"MEAN_MOTION_DOT":-9.9e-7,"MEAN_MOTION_DDOT":0},{"OBJECT_NAME":"HULIANWANG DIGUI-106","OBJECT_ID":"2025-285B","EPOCH":"2026-07-12T21:05:55.248288","CLASSIFICATION_TYPE":"U","MEAN_MOTION":13.29323018,"ECCENTRICITY":0.00010067,"INCLINATION":50.0068,"RA_OF_ASC_NODE":54.0247,"ARG_OF_PERICENTER":25.1822,"MEAN_ANOMALY":334.91,"EPHEMERIS_TYPE":0,"NORAD_CAT_ID":66916,"ELEMENT_SET_NO":999,"REV_AT_EPOCH":2947,"BSTAR":0.000039073094,"MEAN_MOTION_DOT":-0.00000106,"MEAN_MOTION_DDOT":0},{"OBJECT_NAME":"HULIANWANG DIGUI-107","OBJECT_ID":"2025-285C","EPOCH":"2026-07-12T22:41:57.672096","CLASSIFICATION_TYPE":"U","MEAN_MOTION":13.29325967,"ECCENTRICITY":0.00009752,"INCLINATION":50.0034,"RA_OF_ASC_NODE":53.6497,"ARG_OF_PERICENTER":29.7821,"MEAN_ANOMALY":330.3107,"EPHEMERIS_TYPE":0,"NORAD_CAT_ID":66917,"ELEMENT_SET_NO":999,"REV_AT_EPOCH":2948,"BSTAR":0.000041907534,"MEAN_MOTION_DOT":-0.00000105,"MEAN_MOTION_DDOT":0}]}
